IMPULSE-1 MIRA          
1 58301U 23174AX  24017.76189477  .00008912  00000+0  49124-3 0  9999
2 58301  97.4754  94.5634 0010191  28.2646 331.9137 15.14176244 10740
ICEYE-X35               
1 58302U 23174AY  24018.20444452  .00014770  00000+0  82332-3 0  9994
2 58302  97.4756  95.0411 0018094  47.3424 312.9328 15.13546901 10817
FLOCK 4Q-25             
1 58303U 23174AZ  24018.19431212  .00010864  00000+0  57317-3 0  9998
2 58303  97.4700  95.0017 0011652  32.6389 327.5562 15.15665076 10818
FLOCK 4Q-29             
1 58304U 23174BA  24018.19732298  .00008401  00000+0  44646-3 0  9992
2 58304  97.4798  95.0813 0012987  34.2625 325.9443 15.15470131 10819
FLOCK 4Q-18             
1 58305U 23174BB  24018.19079378  .00010377  00000+0  54665-3 0  9993
2 58305  97.4703  95.0083 0011822  32.5334 327.6625 15.15729654 10818
FLOCK 4Q-22             
1 58306U 23174BC  24018.19677386  .00008401  00000+0  44658-3 0  9993
2 58306  97.4717  95.0066 0012056  32.3608 327.8362 15.15469809 10810
FLOCK 4Q-23             
1 58307U 23174BD  24017.72924314  .00011332  00000+0  59671-3 0  9996
2 58307  97.4784  94.6272 0013703  37.0769 323.1407 15.15698368 10744
FLOCK 4Q-33             
1 58308U 23174BE  24018.18247904  .00009333  00000+0  48949-3 0  9995
2 58308  97.4719  95.0328 0012575  33.0897 327.1120 15.15907056 10815
FLOCK 4Q-35             
1 58309U 23174BF  24018.19118054  .00008460  00000+0  44764-3 0  9991
2 58309  97.4773  95.0740 0013440  38.5783 321.6407 15.15616959 10816
FLOCK 4Q-32             
1 58310U 23174BG  24017.77561716  .00027403  00000+0  13870-2 0  9994
2 58310  97.4781  94.7194 0012805  31.0622 329.1366 15.16906383 10754
FLOCK 4Q-14             
1 58311U 23174BH  24017.79489536  .00008672  00000+0  45921-3 0  9996
2 58311  97.4712  94.6253 0011588  32.3582 327.8359 15.15598935 10756
FLOCK 4Q-3              
1 58312U 23174BJ  24018.16676880  .00019394  00000+0  98842-3 0  9992
2 58312  97.4778  95.1095 0012191  30.6029 329.5913 15.16744570 10818
FLOCK 4Q-20             
1 58313U 23174BK  24018.18751562  .00009853  00000+0  51811-3 0  9990
2 58313  97.4777  95.0805 0013479  33.9923 326.2171 15.15789291 10813
FLOCK 4Q-24             
1 58314U 23174BL  24018.19082102  .00008237  00000+0  43624-3 0  9997
2 58314  97.4718  95.0194 0012426  30.8032 329.3927 15.15604200 10817
FLOCK 4Q-6              
1 58315U 23174BM  24018.19309170  .00007703  00000+0  40930-3 0  9999
2 58315  97.4712  95.0121 0012026  30.6231 329.5701 15.15512703 10815
FLOCK 4Q-34             
1 58316U 23174BN  24018.18829515  .00008557  00000+0  45193-3 0  9993
2 58316  97.4730  95.0325 0013253  32.3832 327.8211 15.15677394 10816
KAFASAT                 
1 58317U 23174BP  24018.16210495  .00021622  00000+0  10953-2 0  9996
2 58317  97.4735  95.0729 0013002  32.5190 327.6842 15.16925436 10813
FLOCK 4Q-7              
1 58318U 23174BQ  24018.18786825  .00007641  00000+0  40430-3 0  9993
2 58318  97.4782  95.0826 0013438  31.6699 328.5339 15.15646883 10817
FLOCK 4Q-15             
1 58319U 23174BR  24017.78831818  .00009295  00000+0  48882-3 0  9998
2 58319  97.4776  94.6913 0013039  31.1180 329.0822 15.15809578 10758
FLOCK 4Q-2              
1 58320U 23174BS  24018.18730225  .00007561  00000+0  40025-3 0  9990
2 58320  97.4728  95.0342 0012426  29.4580 330.7351 15.15648514 10815
PROTOMETHEE             
1 58321U 23174BT  24018.18905209  .00007634  00000+0  40469-3 0  9990
2 58321  97.4684  94.9925 0011376  28.5195 331.6658 15.15604204 10815
FLOCK 4Q-9              
1 58322U 23174BU  24017.79021946  .00007806  00000+0  41282-3 0  9999
2 58322  97.4741  94.6577 0012780  30.8519 329.3462 15.15669039 10753
OBSERVER-1A             
1 58323U 23174BV  24018.18997621  .00006763  00000+0  35925-3 0  9994
2 58323  97.4818  95.1100 0013440  29.4015 330.7971 15.15553380 10815
FLOCK 4Q-10             
1 58324U 23174BW  24018.18697067  .00007653  00000+0  40473-3 0  9999
2 58324  97.4746  95.0520 0012511  27.8449 332.3451 15.15676773 10815
FLOCK 4Q-5              
1 58325U 23174BX  24017.78012859  .00017474  00000+0  89858-3 0  9997
2 58325  97.4764  94.6931 0013235  28.9348 331.2616 15.16439810 10755
2023-174BY              
1 58326U 23174BY  24017.89533453  .00010341  00000+0  55783-3 0  9994
2 58326  97.4710  94.6473 0011675  48.5708 311.6525 15.14890301 10768
FLOCK 4Q-4              
1 58327U 23174BZ  24018.16167469  .00008540  00000+0  46329-3 0  9990
2 58327  97.4720  94.9091 0011230  46.4061 313.8101 15.14749762 10808
FLOCK 4Q-13             
1 58328U 23174CA  24017.76725147  .00008327  00000+0  45259-3 0  9993
2 58328  97.4783  94.5724 0012899  48.3395 311.8940 15.14671894 10742
FLOCK 4Q-21             
1 58329U 23174CB  24017.75965624  .00011785  00000+0  63314-3 0  9993
2 58329  97.4782  94.5846 0012200  47.4634 312.7626 15.14996059 10743
2023-174CC              
1 58330U 23174CC  24017.90633921  .00010058  00000+0  52395-3 0  9993
2 58330  97.4683  94.7622 0010286  23.7058 336.4646 15.16148242 10771
BRO-10                  
1 58331U 23174CD  24018.15990224  .00015149  00000+0  77610-3 0  9997
2 58331  97.4696  95.0451 0010495  22.2954 337.8734 15.16631424 10818
LEMUR-2-MARAPAMASM      
1 58332U 23174CE  24018.13745049  .00026237  00000+0  12968-2 0  9993
2 58332  97.4694  95.0664 0010443  19.6545 340.5090 15.17772845 10812
LEMUR-2-THE-CLEANER     
1 58333U 23174CF  24017.75336313  .00020997  00000+0  10571-2 0  9996
2 58333  97.4703  94.6696 0010255  19.0699 341.0916 15.17177355 10750
OUTPOST MISSION 2       
1 58334U 23174CG  24018.16631018  .00011330  00000+0  58697-3 0  9996
2 58334  97.4794  95.1215 0012650  21.2607 338.9149 15.16286829 10815
LEMUR-2-MANGO2A         
1 58335U 23174CH  24018.18265262  .00031842  00000+0  15319-2 0  9996
2 58335  97.4701  95.1774 0010299  18.1346 342.0253 15.18674540 10822
LEMUR-2-JK0903EM1407    
1 58336U 23174CJ  24017.76956169  .00012365  00000+0  63977-3 0  9996
2 58336  97.4697  94.6500 0010293  21.4748 338.6915 15.16332271 10753
LEMUR-2-MANGO2B         
1 58337U 23174CK  24017.91836266  .00038088  00000+0  18301-2 0  9999
2 58337  97.4759  94.9669 0011228  19.2269 340.9387 15.18667049 10782
BARRY-1                 
1 58338U 23174CL  24017.87652146  .00021692  00000+0  10840-2 0  9991
2 58338  97.4735  94.8421 0010732  18.2753 341.8864 15.17425536 10779
PLATFORM 5              
1 58339U 23174CM  24018.14078089  .00020024  00000+0  10027-2 0  9996
2 58339  97.4793  95.1514 0011790  17.6208 342.5432 15.17360333 10811
LEMUR-2-MJR092620       
1 58340U 23174CN  24017.76313857  .00012716  00000+0  65478-3 0  9990
2 58340  97.4760  94.7103 0011512  18.1333 342.0308 15.16483295 10755
NINJASAT                
1 58341U 23174CP  24018.14632211  .00016099  00000+0  81543-3 0  9991
2 58341  97.4734  95.0903 0010333  16.5768 343.5801 15.17020868 10818
PEARL 1C                
1 58342U 23174CQ  24018.14661667  .00011195  00000+0  57289-3 0  9991
2 58342  97.4763  95.1175 0012334  12.3487 347.8046 15.16728331 10815
O3B MPOWER F5           
1 58346U 23175A   24009.89180447  .00000002  00000+0 -31132-1 0  9993
2 58346   4.5918 125.3849 1198979 320.9284  30.9448  6.16537447  4105
O3B MPOWER F6           
1 58347U 23175B   24009.89215265  .00000000  00000+0 -40328-1 0  9996
2 58347   3.9018 128.5125 1067789 321.5427  31.2489  6.08779215  4103
HAIYANG-3A              
1 58349U 23176A   24018.14292459  .00000343  00000+0  13840-3 0  9997
2 58349  98.6404  90.6871 0015958 116.2249 244.0578 14.34092375  9025
STARLINK-30901          
1 58351U 23177A   24017.91668981 -.00594123  00000+0 -37211-2 0  9995
2 58351  43.0009 260.9019 0001821 262.8215 283.2858 15.77456227  5822
STARLINK-30907          
1 58352U 23177B   24018.25001157  .00037512  00000+0  19236-2 0  9999
2 58352  42.9998 279.7752 0001631 258.8295  64.1683 15.15929573 10641
STARLINK-30896          
1 58353U 23177C   24017.78889165  .00060893  00000+0  31008-2 0  9999
2 58353  42.9984 283.1108 0001460 257.5064 102.5620 15.15977980 10509
STARLINK-30832          
1 58354U 23177D   24018.13640422  .00034609  00000+0  17737-2 0  9990
2 58354  42.9995 280.5541 0001523 276.1959  83.8715 15.15982528 10470
STARLINK-30903          
1 58355U 23177E   24018.11604816  .00031560  00000+0  16186-2 0  9996
2 58355  42.9988 281.2652 0001420 252.7117 107.3575 15.15994101 10630
STARLINK-30905          
1 58356U 23177F   24017.84275493  .00028438  00000+0  14611-2 0  9992
2 58356  42.9977 280.9202 0001959 208.4168 151.6572 15.15974898 10536
STARLINK-30842          
1 58357U 23177G   24017.88830743 -.00002810  00000+0 -97623-4 0  9996
2 58357  42.9994 272.5803 0001400 249.5997 110.4704 15.25902581 10695
STARLINK-30858          
1 58358U 23177H   24018.10921690  .00036988  00000+0  18934-2 0  9992
2 58358  42.9985 281.2133 0001480 268.4980  91.5697 15.15997174 10634
STARLINK-30878          
1 58359U 23177J   24018.13185235  .00040147  00000+0  20532-2 0  9992
2 58359  42.9987 280.5201 0001514 268.1025  91.9649 15.15996416 10639
STARLINK-30897          
1 58360U 23177K   24017.89776154  .00010934  00000+0  57054-3 0  9993
2 58360  43.0001 281.3526 0001586 270.4935  89.5731 15.15969283 10596
STARLINK-30885          
1 58361U 23177L   24017.84112557  .00018751  00000+0  96868-3 0  9991
2 58361  42.9989 282.6393 0001351 248.9204 111.1498 15.15977379 10581
STARLINK-30890          
1 58362U 23177M   24017.90244926  .00010376  00000+0  54189-3 0  9990
2 58362  42.9996 282.2417 0001616 258.3670 101.6996 15.15979628 10530
STARLINK-30909          
1 58363U 23177N   24017.90017409  .00023444  00000+0  12073-2 0  9990
2 58363  42.9984 282.2210 0001498 243.8712 116.1981 15.15978539 10583
STARLINK-30904          
1 58364U 23177P   24018.07506652  .00040807  00000+0  20872-2 0  9991
2 58364  42.9998 280.9495 0001616 265.2526  94.8137 15.15986447 10629
